[{"OBJECT_NAME":"RASSVET-3 9","OBJECT_ID":"2026-061J","EPOCH":"2026-04-08T06:33:37.547136","MEAN_MOTION":15.90362252,"ECCENTRICITY":0.00243826,"INCLINATION":82.2959,"RA_OF_ASC_NODE":91.0799,"ARG_OF_PERICENTER":17.4442,"MEAN_ANOMALY":342.7662,"EPHEMERIS_TYPE":0,"CLASSIFICATION_TYPE":"U","NORAD_CAT_ID":68368,"ELEMENT_SET_NO":999,"REV_AT_EPOCH":247,"BSTAR":0.00035796329,"MEAN_MOTION_DOT":0.00111645,"MEAN_MOTION_DDOT":3.252658e-6},{"OBJECT_NAME":"RASSVET-3 10","OBJECT_ID":"2026-061K","EPOCH":"2026-04-08T06:37:29.887968","MEAN_MOTION":15.89705183,"ECCENTRICITY":0.00246471,"INCLINATION":82.2973,"RA_OF_ASC_NODE":91.0852,"ARG_OF_PERICENTER":16.4594,"MEAN_ANOMALY":343.7472,"EPHEMERIS_TYPE":0,"CLASSIFICATION_TYPE":"U","NORAD_CAT_ID":68369,"ELEMENT_SET_NO":999,"REV_AT_EPOCH":247,"BSTAR":0.00019966314,"MEAN_MOTION_DOT":0.0006042,"MEAN_MOTION_DDOT":1.43902e-7},{"OBJECT_NAME":"RASSVET-3 11","OBJECT_ID":"2026-061L","EPOCH":"2026-04-08T06:36:54.185760","MEAN_MOTION":15.89740027,"ECCENTRICITY":0.00244769,"INCLINATION":82.2972,"RA_OF_ASC_NODE":91.0843,"ARG_OF_PERICENTER":16.3442,"MEAN_ANOMALY":343.8613,"EPHEMERIS_TYPE":0,"CLASSIFICATION_TYPE":"U","NORAD_CAT_ID":68370,"ELEMENT_SET_NO":999,"REV_AT_EPOCH":247,"BSTAR":0.00020263653,"MEAN_MOTION_DOT":0.000614,"MEAN_MOTION_DDOT":1.85694e-7},{"OBJECT_NAME":"RASSVET-3 12","OBJECT_ID":"2026-061M","EPOCH":"2026-04-08T06:36:16.361568","MEAN_MOTION":15.89808302,"ECCENTRICITY":0.00244153,"INCLINATION":82.2972,"RA_OF_ASC_NODE":91.0836,"ARG_OF_PERICENTER":16.3297,"MEAN_ANOMALY":343.8756,"EPHEMERIS_TYPE":0,"CLASSIFICATION_TYPE":"U","NORAD_CAT_ID":68371,"ELEMENT_SET_NO":999,"REV_AT_EPOCH":247,"BSTAR":0.00019945405,"MEAN_MOTION_DOT":0.00060642,"MEAN_MOTION_DDOT":1.54509e-7},{"OBJECT_NAME":"RASSVET-3 13","OBJECT_ID":"2026-061N","EPOCH":"2026-04-08T06:36:01.050624","MEAN_MOTION":15.898554,"ECCENTRICITY":0.00241596,"INCLINATION":82.2972,"RA_OF_ASC_NODE":91.0834,"ARG_OF_PERICENTER":16.2575,"MEAN_ANOMALY":343.9466,"EPHEMERIS_TYPE":0,"CLASSIFICATION_TYPE":"U","NORAD_CAT_ID":68372,"ELEMENT_SET_NO":999,"REV_AT_EPOCH":247,"BSTAR":0.00028691817,"MEAN_MOTION_DOT":0.0008724,"MEAN_MOTION_DDOT":1.524548e-6},{"OBJECT_NAME":"RASSVET-3 14","OBJECT_ID":"2026-061P","EPOCH":"2026-04-07T21:31:17.135904","MEAN_MOTION":15.89893878,"ECCENTRICITY":0.0024263,"INCLINATION":82.2978,"RA_OF_ASC_NODE":91.5115,"ARG_OF_PERICENTER":17.9262,"MEAN_ANOMALY":342.2859,"EPHEMERIS_TYPE":0,"CLASSIFICATION_TYPE":"U","NORAD_CAT_ID":68373,"ELEMENT_SET_NO":999,"REV_AT_EPOCH":241,"BSTAR":8.8108e-5,"MEAN_MOTION_DOT":0.00027091,"MEAN_MOTION_DDOT":-8.5891e-7},{"OBJECT_NAME":"RASSVET-3 15","OBJECT_ID":"2026-061Q","EPOCH":"2026-04-08T06:34:38.542944","MEAN_MOTION":15.90168656,"ECCENTRICITY":0.00235838,"INCLINATION":82.297,"RA_OF_ASC_NODE":91.082,"ARG_OF_PERICENTER":16.2176,"MEAN_ANOMALY":343.9845,"EPHEMERIS_TYPE":0,"CLASSIFICATION_TYPE":"U","NORAD_CAT_ID":68374,"ELEMENT_SET_NO":999,"REV_AT_EPOCH":247,"BSTAR":0.00036620005,"MEAN_MOTION_DOT":0.00112891,"MEAN_MOTION_DDOT":3.342627e-6},{"OBJECT_NAME":"RASSVET-3 16","OBJECT_ID":"2026-061R","EPOCH":"2026-04-07T10:52:18.060384","MEAN_MOTION":15.89737986,"ECCENTRICITY":0.00230282,"INCLINATION":82.2962,"RA_OF_ASC_NODE":92.0033,"ARG_OF_PERICENTER":24.0595,"MEAN_ANOMALY":336.1747,"EPHEMERIS_TYPE":0,"CLASSIFICATION_TYPE":"U","NORAD_CAT_ID":68375,"ELEMENT_SET_NO":999,"REV_AT_EPOCH":234,"BSTAR":0.00037908901,"MEAN_MOTION_DOT":0.00114197,"MEAN_MOTION_DDOT":3.423466e-6},{"OBJECT_NAME":"SUPERVIEW NEO-2 OBJECT A","OBJECT_ID":"2026-062A","EPOCH":"2026-04-06T05:59:20.216256","MEAN_MOTION":15.20635232,"ECCENTRICITY":0.00066673,"INCLINATION":97.4366,"RA_OF_ASC_NODE":104.581,"ARG_OF_PERICENTER":222.4946,"MEAN_ANOMALY":137.5774,"EPHEMERIS_TYPE":0,"CLASSIFICATION_TYPE":"U","NORAD_CAT_ID":68377,"ELEMENT_SET_NO":999,"REV_AT_EPOCH":172,"BSTAR":0.00017460966,"MEAN_MOTION_DOT":3.763e-5,"MEAN_MOTION_DDOT":0},{"OBJECT_NAME":"SUPERVIEW NEO-2 OBJECT B","OBJECT_ID":"2026-062B","EPOCH":"2026-04-07T02:31:16.537728","MEAN_MOTION":15.2003229,"ECCENTRICITY":0.00074582,"INCLINATION":97.4352,"RA_OF_ASC_NODE":105.4222,"ARG_OF_PERICENTER":218.5897,"MEAN_ANOMALY":141.4806,"EPHEMERIS_TYPE":0,"CLASSIFICATION_TYPE":"U","NORAD_CAT_ID":68378,"ELEMENT_SET_NO":999,"REV_AT_EPOCH":185,"BSTAR":0.00016455912,"MEAN_MOTION_DOT":3.481e-5,"MEAN_MOTION_DDOT":0},{"OBJECT_NAME":"STARLINK-36296","OBJECT_ID":"2026-063A","EPOCH":"2026-04-07T22:08:25.143072","MEAN_MOTION":16.00716482,"ECCENTRICITY":0.0002516,"INCLINATION":97.2837,"RA_OF_ASC_NODE":239.1511,"ARG_OF_PERICENTER":340.5305,"MEAN_ANOMALY":19.5877,"EPHEMERIS_TYPE":0,"CLASSIFICATION_TYPE":"U","NORAD_CAT_ID":68380,"ELEMENT_SET_NO":999,"REV_AT_EPOCH":224,"BSTAR":0.0010604851,"MEAN_MOTION_DOT":0.0055828,"MEAN_MOTION_DDOT":0.00014083639},{"OBJECT_NAME":"STARLINK-37111","OBJECT_ID":"2026-063B","EPOCH":"2026-04-08T06:00:00.999648","MEAN_MOTION":15.80814919,"ECCENTRICITY":0.00010795,"INCLINATION":97.2839,"RA_OF_ASC_NODE":239.4222,"ARG_OF_PERICENTER":86.5173,"MEAN_ANOMALY":158.7861,"EPHEMERIS_TYPE":0,"CLASSIFICATION_TYPE":"U","NORAD_CAT_ID":68381,"ELEMENT_SET_NO":999,"REV_AT_EPOCH":321,"BSTAR":0.00024975969,"MEAN_MOTION_DOT":0.00047959,"MEAN_MOTION_DDOT":0},{"OBJECT_NAME":"STARLINK-36946","OBJECT_ID":"2026-063C","EPOCH":"2026-04-08T06:00:00.999648","MEAN_MOTION":15.80777246,"ECCENTRICITY":0.00014382,"INCLINATION":97.2837,"RA_OF_ASC_NODE":239.4224,"ARG_OF_PERICENTER":90.3492,"MEAN_ANOMALY":159.2423,"EPHEMERIS_TYPE":0,"CLASSIFICATION_TYPE":"U","NORAD_CAT_ID":68382,"ELEMENT_SET_NO":999,"REV_AT_EPOCH":321,"BSTAR":0.00058019442,"MEAN_MOTION_DOT":0.00112235,"MEAN_MOTION_DDOT":0},{"OBJECT_NAME":"STARLINK-37121","OBJECT_ID":"2026-063D","EPOCH":"2026-04-08T06:00:00.999648","MEAN_MOTION":15.80779912,"ECCENTRICITY":0.0001356,"INCLINATION":97.2839,"RA_OF_ASC_NODE":239.4272,"ARG_OF_PERICENTER":73.544,"MEAN_ANOMALY":184.5911,"EPHEMERIS_TYPE":0,"CLASSIFICATION_TYPE":"U","NORAD_CAT_ID":68383,"ELEMENT_SET_NO":999,"REV_AT_EPOCH":321,"BSTAR":0.0005588704,"MEAN_MOTION_DOT":0.00108065,"MEAN_MOTION_DDOT":0},{"OBJECT_NAME":"STARLINK-37137","OBJECT_ID":"2026-063E","EPOCH":"2026-04-08T06:00:00.999648","MEAN_MOTION":15.79757364,"ECCENTRICITY":0.0001706,"INCLINATION":97.284,"RA_OF_ASC_NODE":239.4242,"ARG_OF_PERICENTER":84.4421,"MEAN_ANOMALY":168.9445,"EPHEMERIS_TYPE":0,"CLASSIFICATION_TYPE":"U","NORAD_CAT_ID":68384,"ELEMENT_SET_NO":999,"REV_AT_EPOCH":321,"BSTAR":-0.01192387,"MEAN_MOTION_DOT":-0.0190147,"MEAN_MOTION_DDOT":0}]
