RASSVET-3 9             
1 68368U 26061J   26098.27335124  .00111645  32527-5  35796-3 0  9993
2 68368  82.2959  91.0799 0024382  17.4442 342.7662 15.90362252  2472
RASSVET-3 10            
1 68369U 26061K   26098.27604037  .00060420  14390-6  19966-3 0  9990
2 68369  82.2973  91.0852 0024647  16.4594 343.7472 15.89705183  2472
RASSVET-3 11            
1 68370U 26061L   26098.27562715  .00061400  18569-6  20264-3 0  9992
2 68370  82.2972  91.0843 0024476  16.3442 343.8613 15.89740027  2478
RASSVET-3 12            
1 68371U 26061M   26098.27518937  .00060642  15451-6  19945-3 0  9998
2 68371  82.2972  91.0836 0024415  16.3297 343.8756 15.89808302  2471
RASSVET-3 13            
1 68372U 26061N   26098.27501216  .00087240  15245-5  28692-3 0  9993
2 68372  82.2972  91.0834 0024159  16.2575 343.9466 15.89855400  2473
RASSVET-3 14            
1 68373U 26061P   26097.89672611  .00027091 -85891-6  88108-4 0  9992
2 68373  82.2978  91.5115 0024263  17.9262 342.2859 15.89893878  2417
RASSVET-3 15            
1 68374U 26061Q   26098.27405721  .00112891  33426-5  36620-3 0  9991
2 68374  82.2970  91.0820 0023583  16.2176 343.9845 15.90168656  2478
RASSVET-3 16            
1 68375U 26061R   26097.45298681  .00114197  34235-5  37909-3 0  9997
2 68375  82.2962  92.0033 0023028  24.0595 336.1747 15.89737986  2340
SUPERVIEW NEO-2 OBJECT A
1 68377U 26062A   26096.24953954  .00003763  00000+0  17461-3 0  9991
2 68377  97.4366 104.5810 0006667 222.4946 137.5774 15.20635232  1724
SUPERVIEW NEO-2 OBJECT B
1 68378U 26062B   26097.10505252  .00003481  00000+0  16456-3 0  9992
2 68378  97.4352 105.4222 0007458 218.5897 141.4806 15.20032290  1856
STARLINK-36296          
1 68380U 26063A   26097.92251323  .00558280  14084-3  10605-2 0  9995
2 68380  97.2837 239.1511 0002516 340.5305  19.5877 16.00716482  2249
STARLINK-37111          
1 68381U 26063B   26098.25001157  .00047959  00000+0  24976-3 0  9993
2 68381  97.2839 239.4222 0001079  86.5173 158.7861 15.80814919  3215
STARLINK-36946          
1 68382U 26063C   26098.25001157  .00112235  00000+0  58019-3 0  9999
2 68382  97.2837 239.4224 0001438  90.3492 159.2423 15.80777246  3213
STARLINK-37121          
1 68383U 26063D   26098.25001157  .00108065  00000+0  55887-3 0  9996
2 68383  97.2839 239.4272 0001356  73.5440 184.5911 15.80779912  3219
STARLINK-37137          
1 68384U 26063E   26098.25001157 -.01901470  00000+0 -11924-1 0  9993
2 68384  97.2840 239.4242 0001706  84.4421 168.9445 15.79757364  3211
